[{"OBJECT_NAME":"XINGYUN-2 01","OBJECT_ID":"2020-028A","EPOCH":"2026-03-09T23:27:57.512736","MEAN_MOTION":15.11323975,"ECCENTRICITY":0.00090563,"INCLINATION":97.4853,"RA_OF_ASC_NODE":63.3977,"ARG_OF_PERICENTER":174.572,"MEAN_ANOMALY":185.561,"EPHEMERIS_TYPE":0,"CLASSIFICATION_TYPE":"U","NORAD_CAT_ID":45602,"ELEMENT_SET_NO":999,"REV_AT_EPOCH":31985,"BSTAR":0.000253969,"MEAN_MOTION_DOT":4.22e-5,"MEAN_MOTION_DDOT":0},{"OBJECT_NAME":"STARLINK-4095","OBJECT_ID":"2022-083AQ","EPOCH":"2026-03-09T12:28:17.094720","MEAN_MOTION":15.08837297,"ECCENTRICITY":0.00010123,"INCLINATION":53.2172,"RA_OF_ASC_NODE":159.8384,"ARG_OF_PERICENTER":61.3287,"MEAN_ANOMALY":298.7807,"EPHEMERIS_TYPE":0,"CLASSIFICATION_TYPE":"U","NORAD_CAT_ID":53170,"ELEMENT_SET_NO":999,"REV_AT_EPOCH":20140,"BSTAR":-8.642716e-6,"MEAN_MOTION_DOT":-4.25e-6,"MEAN_MOTION_DDOT":0}]
